NORAD_CAT_ID,OBJECT_NAME,OBJECT_TYPE,EPOCH,MEAN_MOTION,ECCENTRICITY,INCLINATION,RA_OF_ASC_NODE,ARG_OF_PERICENTER,MEAN_ANOMALY,BSTAR,MEAN_MOTION_DOT,MEAN_MOTION_DDOT,TLE_LINE0,TLE_LINE1,TLE_LINE2,SEMIMAJOR_AXIS,PERIOD,APOGEE,PERIGEE,DECAYED
55767.0,STARLINK-5606,PAYLOAD,2023-07-19 02:39:37,14.99299642,0.0002835,69.9994,136.6975,264.5885,95.4951,-2.3703e-05,-3.84e-06,0.0,0 STARLINK-5606,1 55767U 23028AC  23200.11085529 -.00000384  00000-0 -23703-4 0  9999,2 55767  69.9994 136.6975 0002835 264.5885  95.4951 14.99299642 22036,6947.196,96.045,571.03,567.091,0.0
55767.0,STARLINK-5606,PAYLOAD,2023-07-20 05:52:51,14.99301236,0.0002769,69.9996,133.8337,267.3235,92.7607,-3.798e-05,-5.59e-06,0.0,0 STARLINK-5606,1 55767U 23028AC  23201.24504075 -.00000559  00000-0 -37980-4 0  9992,2 55767  69.9996 133.8337 0002769 267.3235  92.7607 14.99301236 22205,6947.191,96.045,570.98,567.132,0.0
55767.0,STARLINK-5606,PAYLOAD,2023-07-21 05:53:56,14.99301062,0.0002697,69.9999,131.3064,270.124,89.9611,5.5762e-05,5.89e-06,0.0,0 STARLINK-5606,1 55767U 23028AC  23202.24579084  .00000589  00000-0  55762-4 0  9994,2 55767  69.9999 131.3064 0002697 270.1240  89.9611 14.99301062 22352,6947.192,96.045,570.93,567.183,0.0
55767.0,STARLINK-5606,PAYLOAD,2023-07-24 04:22:51,14.98630149,0.0003363,69.9993,123.8983,270.4387,89.6387,-0.0046341,-0.00055382,0.0,0 STARLINK-5606,1 55767U 23028AC  23205.18253506 -.00055382  00000-0 -46341-2 0  9992,2 55767  69.9993 123.8983 0003363 270.4387  89.6387 14.98630149 22805,6949.265,96.088,573.467,568.793,0.0
55767.0,STARLINK-5606,PAYLOAD,2023-07-25 14:00:01,14.98292454,0.0003373,70.0007,120.3661,266.1575,87.7706,0.0057753,0.00069438,0.0,0 STARLINK-5606,1 55767U 23028AC  23206.58335648  .00069438  00000-0  57753-2 0  9999,2 55767  70.0007 120.3661 0003373 266.1575  87.7706 14.98292454  2334,6950.309,96.109,574.518,569.83,0.0
55767.0,STARLINK-5606,PAYLOAD,2023-07-26 04:26:53,14.98332481,0.0003097,69.9993,118.8475,269.3707,90.7097,5.1322e-06,-3.2e-07,0.0,0 STARLINK-5606,1 55767U 23028AC  23207.18533688 -.00000032  00000-0  51322-5 0  9995,2 55767  69.9993 118.8475 0003097 269.3707  90.7097 14.98332481 23105,6950.185,96.107,574.203,569.898,0.0
55767.0,STARLINK-5606,PAYLOAD,2023-07-27 04:28:53,14.98332067,0.0003048,70.0002,116.3238,270.9136,89.1673,3.1225e-05,2.8e-06,0.0,0 STARLINK-5606,1 55767U 23028AC  23208.18673439  .00000280  00000-0  31225-4 0  9998,2 55767  70.0002 116.3238 0003048 270.9136  89.1673 14.98332067 23246,6950.186,96.107,574.17,569.933,0.0
55767.0,STARLINK-5606,PAYLOAD,2023-07-27 17:17:59,14.98266647,0.0002802,70.0,114.9769,265.0446,95.0393,0.00081193,9.592e-05,0.0,0 STARLINK-5606,1 55767U 23028AC  23208.72082597  .00009592  00000-0  81193-3 0  9990,2 55767  70.0000 114.9769 0002802 265.0446  95.0393 14.98266647 23327,6950.389,96.111,574.201,570.306,0.0
55767.0,STARLINK-5606,PAYLOAD,2023-07-28 02:54:47,14.98321196,0.0002999,70.0001,113.967,269.71,90.3716,-0.00010205,-1.31e-05,0.0,0 STARLINK-5606,1 55767U 23028AC  23209.12138748 -.00001310  00000-0 -10205-3 0  9993,2 55767  70.0001 113.9670 0002999 269.7100  90.3716 14.98321196 23387,6950.22,96.108,574.169,570.001,0.0
55767.0,STARLINK-5606,PAYLOAD,2023-07-28 17:19:59,14.98322668,0.0003363,69.9992,112.4522,274.4565,85.6209,8.0873e-05,8.72e-06,0.0,0 STARLINK-5606,1 55767U 23028AC  23209.72221975  .00000872  00000-0  80873-4 0  9993,2 55767  69.9992 112.4522 0003363 274.4565  85.6209 14.98322668 23476,6950.216,96.107,574.418,569.743,0.0
55767.0,STARLINK-5606,PAYLOAD,2023-07-29 01:20:41,14.9830587,0.0003091,69.9999,111.6103,272.1258,87.9547,-0.00012144,-1.541e-05,0.0,0 STARLINK-5606,1 55767U 23028AC  23210.05603912 -.00001541  00000-0 -12144-3 0  9997,2 55767  69.9999 111.6103 0003091 272.1258  87.9547 14.98305870 23523,6950.268,96.109,574.281,569.984,0.0
55767.0,STARLINK-5606,PAYLOAD,2023-07-29 10:57:29,14.98317619,0.0003281,70.0001,110.6009,273.2145,86.8639,-0.00010286,-1.32e-05,0.0,0 STARLINK-5606,1 55767U 23028AC  23210.45659651 -.00001320  00000-0 -10286-3 0  9992,2 55767  70.0001 110.6009 0003281 273.2145  86.8639 14.98317619 23582,6950.231,96.108,574.377,569.816,0.0
55767.0,STARLINK-5606,PAYLOAD,2023-07-29 18:58:16,14.98294756,0.0002486,70.0,109.7595,266.1649,93.9226,6.1012e-05,6.34e-06,0.0,0 STARLINK-5606,1 55767U 23028AC  23210.79047401  .00000634  00000-0  61012-4 0  9992,2 55767  70.0000 109.7595 0002486 266.1649  93.9226 14.98294756 23639,6950.302,96.109,573.895,570.439,0.0
55767.0,STARLINK-5606,PAYLOAD,2023-07-30 02:58:50,14.9832621,0.000324,69.9991,108.9179,276.1581,83.9208,0.00011066,1.227e-05,0.0,0 STARLINK-5606,1 55767U 23028AC  23211.12419069  .00001227  00000-0  11066-3 0  9995,2 55767  69.9991 108.9179 0003240 276.1581  83.9208 14.98326210 23684,6950.205,96.107,574.321,569.818,0.0
55767.0,STARLINK-5606,PAYLOAD,2023-07-30 19:00:09,14.98334165,0.000335,69.9993,107.235,278.2657,81.8122,0.00024782,2.865e-05,0.0,0 STARLINK-5606,1 55767U 23028AC  23211.79178069  .00002865  00000-0  24782-3 0  9998,2 55767  69.9993 107.2350 0003350 278.2657  81.8122 14.98334165 23789,6950.18,96.107,574.373,569.717,0.0
55767.0,STARLINK-5606,PAYLOAD,2023-07-31 03:00:49,14.98342116,0.0003315,69.9991,106.3928,277.3442,82.734,0.00030604,3.562e-05,0.0,0 STARLINK-5606,1 55767U 23028AC  23212.12557256  .00003562  00000-0  30604-3 0  9990,2 55767  69.9991 106.3928 0003315 277.3442  82.7340 14.98342116 23834,6950.155,96.106,574.324,569.716,0.0
55767.0,STARLINK-5606,PAYLOAD,2023-07-31 19:02:10,14.98337147,0.0002661,69.9997,104.7105,263.1536,96.932,6.1678e-05,6.43e-06,0.0,0 STARLINK-5606,1 55767U 23028AC  23212.79318047  .00000643  00000-0  61678-4 0  9999,2 55767  69.9997 104.7105 0002661 263.1536  96.9320 14.98337147 23933,6950.171,96.107,573.885,570.186,0.0
55767.0,STARLINK-5606,PAYLOAD,2023-08-02 01:28:43,14.98337134,0.0002796,70.0,101.5122,270.0788,90.005,-0.00012377,-1.57e-05,0.0,0 STARLINK-5606,1 55767U 23028AC  23214.06161916 -.00001570  00000-0 -12377-3 0  9995,2 55767  70.0000 101.5122 0002796 270.0788  90.0050 14.98337134 24123,6950.171,96.107,573.979,570.093,0.0
55767.0,STARLINK-5606,PAYLOAD,2023-08-02 09:29:23,14.98363647,0.0002808,70.0003,100.6707,273.8934,86.1904,-0.00059372,-7.176e-05,0.0,0 STARLINK-5606,1 55767U 23028AC  23214.39541060 -.00007176  00000-0 -59372-3 0  9997,2 55767  70.0003 100.6707 0002808 273.8934  86.1904 14.98363647 24170,6950.089,96.105,573.905,570.002,0.0
55767.0,STARLINK-5606,PAYLOAD,2023-08-02 17:30:04,14.98333519,0.0002911,69.9996,99.8292,265.1179,94.9647,-1.305e-05,-2.49e-06,0.0,0 STARLINK-5606,1 55767U 23028AC  23214.72921506 -.00000249  00000-0 -13050-4 0  9999,2 55767  69.9996  99.8292 0002911 265.1179  94.9647 14.98333519 24228,6950.182,96.107,574.07,570.024,0.0
55767.0,STARLINK-5606,PAYLOAD,2023-08-03 19:08:13,14.98325684,0.0002699,70.0,97.1356,263.5082,96.5769,-9.047e-05,-1.172e-05,0.0,0 STARLINK-5606,1 55767U 23028AC  23215.79738079 -.00001172  00000-0 -90470-4 0  9995,2 55767  70.0000  97.1356 0002699 263.5082  96.5769 14.98325684 24381,6950.206,96.107,573.947,570.195,0.0
55767.0,STARLINK-5606,PAYLOAD,2023-08-04 19:10:14,14.98333599,0.0002719,69.9999,94.6108,263.2651,96.8199,9.8636e-06,2.5e-07,0.0,0 STARLINK-5606,1 55767U 23028AC  23216.79877417  .00000025  00000-0  98636-5 0  9993,2 55767  69.9999  94.6108 0002719 263.2651  96.8199 14.98333599 24535,6950.182,96.107,573.937,570.157,0.0
55767.0,STARLINK-5606,PAYLOAD,2023-08-05 19:12:15,14.98328667,0.0002792,69.9998,92.0858,261.9087,98.1755,7.2e-05,7.66e-06,0.0,0 STARLINK-5606,1 55767U 23028AC  23217.80017381  .00000766  00000-0  72000-4 0  9990,2 55767  69.9998  92.0858 0002792 261.9087  98.1755 14.98328667 24686,6950.197,96.107,574.003,570.122,0.0
55767.0,STARLINK-5606,PAYLOAD,2023-08-06 17:38:08,14.98322456,0.000275,69.9999,89.728,267.2436,92.8408,-0.00010237,-1.314e-05,0.0,0 STARLINK-5606,1 55767U 23028AC  23218.73482351 -.00001314  00000-0 -10237-3 0  9991,2 55767  69.9999  89.7280 0002750 267.2436  92.8408 14.98322456 24822,6950.216,96.107,573.993,570.17,0.0
55767.0,STARLINK-5606,PAYLOAD,2023-08-07 17:40:09,14.98330647,0.0003024,69.9993,87.2034,269.375,90.7063,-3.3554e-05,-4.93e-06,0.0,0 STARLINK-5606,1 55767U 23028AC  23219.73622007 -.00000493  00000-0 -33554-4 0  9991,2 55767  69.9993  87.2034 0003024 269.3750  90.7063 14.98330647 24974,6950.191,96.107,574.158,569.954,0.0
55767.0,STARLINK-5606,PAYLOAD,2023-08-08 20:54:25,14.98333216,0.0003117,69.9991,84.3416,270.7298,89.3503,0.00019537,2.239e-05,0.0,0 STARLINK-5606,1 55767U 23028AC  23220.87113102  .00002239  00000-0  19537-3 0  9991,2 55767  69.9991  84.3416 0003117 270.7298  89.3503 14.98333216 25148,6950.183,96.107,574.214,569.882,0.0
55767.0,STARLINK-5606,PAYLOAD,2023-08-09 14:31:55,14.98328817,0.0002902,69.9996,82.49,272.2751,87.8075,-2.9704e-05,-4.47e-06,0.0,0 STARLINK-5606,1 55767U 23028AC  23221.60549905 -.00000447  00000-0 -29704-4 0  9996,2 55767  69.9996  82.4900 0002902 272.2751  87.8075 14.98328817 25252,6950.197,96.107,574.078,570.045,0.0
55767.0,STARLINK-5606,PAYLOAD,2023-08-10 16:10:03,14.98335333,0.0002938,69.9993,79.7966,272.6981,87.3842,-0.00010979,-1.403e-05,0.0,0 STARLINK-5606,1 55767U 23028AC  23222.67365550 -.00001403  00000-0 -10979-3 0  9992,2 55767  69.9993  79.7966 0002938 272.6981  87.3842 14.98335333 25414,6950.176,96.107,574.083,569.999,0.0
55767.0,STARLINK-5606,PAYLOAD,2023-08-11 17:48:12,14.98328026,0.0003131,69.9992,77.1029,272.5314,87.5486,5.2071e-05,5.28e-06,0.0,0 STARLINK-5606,1 55767U 23028AC  23223.74181329  .00000528  00000-0  52071-4 0  9996,2 55767  69.9992  77.1029 0003131 272.5314  87.5486 14.98328026 25574,6950.199,96.107,574.24,569.888,0.0
55767.0,STARLINK-5606,PAYLOAD,2023-08-13 01:50:53,14.98322896,0.0002736,69.9994,73.736,267.9017,92.1829,0.00021222,2.44e-05,0.0,0 STARLINK-5606,1 55767U 23028AC  23225.07701250  .00002440  00000-0  21222-3 0  9993,2 55767  69.9994  73.7360 0002736 267.9017  92.1829 14.98322896 25778,6950.215,96.107,573.981,570.178,0.0
